DMSP 5D-3 F16 (USA 172) 
1 28054U 03048A   26155.22303601  .00000030  00000+0  39503-4 0  9996
2 28054  98.9894 178.9652 0007068 174.6569 262.8614 14.14481930167654
METEOSAT-9 (MSG-2)      
1 28912U 05049B   26154.86114579  .00000133  00000+0  00000+0 0  9994
2 28912   9.3308  54.2974 0002358  37.5703 156.1962  1.00267174  6869
DMSP 5D-3 F17 (USA 191) 
1 29522U 06050A   26155.30022699  .00000061  00000+0  54064-4 0  9990
2 29522  98.7378 162.1340 0011325  92.2491 267.9980 14.14991132 10603
FENGYUN 3A              
1 32958U 08026A   26154.44398347  .00000099  00000+0  67514-4 0  9997
2 32958  98.6881  95.5346 0008990 160.5127 199.6395 14.19568113933454
GOES 14                 
1 35491U 09033A   26155.27281832 -.00000225  00000+0  00000+0 0  9997
2 35491   1.6567  83.1964 0002133 359.4470  57.4889  1.00115613  6466
DMSP 5D-3 F18 (USA 210) 
1 35951U 09057A   26155.27073779  .00000313  00000+0  18525-3 0  9995
2 35951  98.9033 136.0683 0009952 290.7115  69.2991 14.14889439857764
EWS-G2 (GOES 15)        
1 36411U 10008A   26155.14987457  .00000031  00000+0  00000+0 0  9990
2 36411   1.2421  83.0693 0005512  34.9751 252.0540  1.00275862 59506
COMS 1                  
1 36744U 10032A   26152.73864208 -.00000334  00000+0  00000+0 0  9993
2 36744   4.7700  75.5552 0001064 351.7830 216.9341  1.00271905 50939
FENGYUN 3B              
1 37214U 10059A   26155.30620155 -.00000233  00000+0 -97333-4 0  9991
2 37214  98.9620 201.2655 0021235 221.4056 274.3820 14.14837082805600
SUOMI NPP               
1 37849U 11061A   26155.23012389  .00000105  00000+0  71061-4 0  9991
2 37849  98.7951  96.1950 0002208  34.5354 325.5965 14.19514600756608
METEOSAT-10 (MSG-3)     
1 38552U 12035B   26155.06604178  .00000005  00000+0  00000+0 0  9998
2 38552   4.6405  61.0782 0001855 337.7427 237.6281  1.00275536 50722
METOP-B                 
1 38771U 12049A   26155.30799780  .00000140  00000+0  84006-4 0  9990
2 38771  98.6509 207.0636 0002936  48.7465 311.3965 14.21429180711439
INSAT-3D                
1 39216U 13038B   26155.30557919 -.00000327  00000+0  00000+0 0  9995
2 39216   1.8926  82.7035 0000910 346.9220  62.6453  1.00269387 46956
FENGYUN 3C              
1 39260U 13052A   26155.25189646  .00000120  00000+0  82044-4 0  9995
2 39260  98.4980 129.7213 0015778  62.6755 297.6024 14.15751976656737
METEOR-M 2              
1 40069U 14037A   26155.26420928  .00000346  00000+0  17751-3 0  9992
2 40069  98.5110 131.4610 0007050  75.3706 284.8254 14.21458413617483
HIMAWARI-8              
1 40267U 14060A   26154.95131337 -.00000263  00000+0  00000+0 0  9990
2 40267   0.0154   1.3160 0000981  86.1978 288.0371  1.00272808 42620
FENGYUN 2G              
1 40367U 14090A   26154.80052208 -.00000292  00000+0  00000+0 0  9999
2 40367   5.6052  72.9774 0003440 153.7233  53.2439  1.00279146 41866
METEOSAT-11 (MSG-4)     
1 40732U 15034A   26155.13912786  .00000074  00000+0  00000+0 0  9994
2 40732   3.1697  71.1815 0001631   3.3437 237.5044  1.00276233  7082
ELEKTRO-L 2             
1 41105U 15074A   26155.06310514 -.00000107  00000+0  00000+0 0  9994
2 41105   6.6614  70.6831 0001329 280.5449 269.5208  1.00272364 38376
SENTINEL-3A             
1 41335U 16011A   26155.31266942  .00000148  00000+0  79338-4 0  9993
2 41335  98.6251 222.8807 0001303 105.8790 254.2534 14.26736386536224
INSAT-3DR               
1 41752U 16054A   26155.08072333 -.00000065  00000+0  00000+0 0  9990
2 41752   0.1402  86.9411 0010324 189.2543  79.4009  1.00271328 35684
HIMAWARI-9              
1 41836U 16064A   26154.87997589 -.00000263  00000+0  00000+0 0  9999
2 41836   0.0411 169.8886 0001563 311.0224 228.9789  1.00270670 35077
GOES 16                 
1 41866U 16071A   26155.18794780 -.00000079  00000+0  00000+0 0  9998
2 41866   0.3071  85.6542 0000679 317.8199 172.1703  1.00271220 34977
FENGYUN 4A              
1 41882U 16077A   26155.30436586 -.00000345  00000+0  00000+0 0  9999
2 41882   2.2904  80.4243 0008174 151.6638 253.9587  1.00276528 34808
CYGFM05                 
1 41884U 16078A   26154.96601564  .00024961  00000+0  34577-3 0  9992
2 41884  34.9581 348.0996 0007632  16.1223 343.9743 15.56053261526694
CYGFM04                 
1 41885U 16078B   26154.84918617  .00032093  00000+0  37212-3 0  9994
2 41885  34.9334 317.2233 0006274  59.2059 300.9283 15.60725588526919
CYGFM02                 
1 41886U 16078C   26154.81105752  .00038278  00000+0  39646-3 0  9994
2 41886  34.9417 312.3956 0007242  61.1306 299.0146 15.63583658527070
CYGFM01                 
1 41887U 16078D   26154.96041245  .00025620  00000+0  34629-3 0  9990
2 41887  34.9412 349.3001 0007494   9.9841 350.1031 15.56708194526640
CYGFM08                 
1 41888U 16078E   26154.87820111  .00029991  00000+0  36745-3 0  9994
2 41888  34.9441 329.7687 0008331  42.3043 317.8324 15.59280840526899
CYGFM07                 
1 41890U 16078G   26154.83819993  .00030504  00000+0  37249-3 0  9991
2 41890  34.9457 318.3886 0006662  58.5749 301.5627 15.59381184526913
CYGFM03                 
1 41891U 16078H   26154.87315422  .00030010  00000+0  36657-3 0  9998
2 41891  34.9413 320.0972 0006243  45.5037 314.6198 15.59378968526894
